STARLINK-30432
1 57864U 23144A   26061.16668981  .01020607  00000+0  37723-1 0  9992
2 57864  43.0000 327.4547 0001543 272.7639 303.2355 15.24169469  5722
